[
  {
    "OBJECT_NAME": "STARLINK-35288",
    "OBJECT_ID": "25216R",
    "EPOCH": "2025-11-11T06:39:20.883456",
    "MEAN_MOTION": 15.3962969,
    "ECCENTRICITY": 4.54e-05,
    "INCLINATION": 53.1658,
    "RA_OF_ASC_NODE": 163.6477,
    "ARG_OF_PERICENTER": 195.1005,
    "MEAN_ANOMALY": 164.9987,
    "EPHEMERIS_TYPE": 0,
    "CLASSIFICATION_TYPE": "U",
    "NORAD_CAT_ID": 65749,
    "ELEMENT_SET_NO": 999,
    "REV_AT_EPOCH": 837,
    "BSTAR": 0.0014897,
    "MEAN_MOTION_DOT": 0.00059674,
    "MEAN_MOTION_DDOT": 0.0,
    "TLE_LINE1": "1 65749U 25216R   25315.27732504  .00059674  00000+0  14897-2 0  9994",
    "TLE_LINE2": "2 65749  53.1658 163.6477 0000454 195.1005 164.9987 15.39629690  8371",
    "COMMENT": "Grouped by shell and plane from TLE"
  },
  {
    "OBJECT_NAME": "STARLINK-35165",
    "OBJECT_ID": "25216S",
    "EPOCH": "2025-11-11T00:12:04.889088",
    "MEAN_MOTION": 15.39692063,
    "ECCENTRICITY": 0.0001396,
    "INCLINATION": 53.1569,
    "RA_OF_ASC_NODE": 164.8107,
    "ARG_OF_PERICENTER": 119.2787,
    "MEAN_ANOMALY": 240.8357,
    "EPHEMERIS_TYPE": 0,
    "CLASSIFICATION_TYPE": "U",
    "NORAD_CAT_ID": 65750,
    "ELEMENT_SET_NO": 999,
    "REV_AT_EPOCH": 833,
    "BSTAR": 0.0012443,
    "MEAN_MOTION_DOT": 0.00049816,
    "MEAN_MOTION_DDOT": 0.0,
    "TLE_LINE1": "1 65750U 25216S   25315.00838992  .00049816  00000+0  12443-2 0  9997",
    "TLE_LINE2": "2 65750  53.1569 164.8107 0001396 119.2787 240.8357 15.39692063  8332",
    "COMMENT": "Grouped by shell and plane from TLE"
  },
  {
    "OBJECT_NAME": "STARLINK-35260",
    "OBJECT_ID": "25216T",
    "EPOCH": "2025-11-11T00:05:23.186976",
    "MEAN_MOTION": 15.39655429,
    "ECCENTRICITY": 7.95e-05,
    "INCLINATION": 53.1591,
    "RA_OF_ASC_NODE": 164.7819,
    "ARG_OF_PERICENTER": 63.4909,
    "MEAN_ANOMALY": 296.6177,
    "EPHEMERIS_TYPE": 0,
    "CLASSIFICATION_TYPE": "U",
    "NORAD_CAT_ID": 65751,
    "ELEMENT_SET_NO": 999,
    "REV_AT_EPOCH": 836,
    "BSTAR": 0.0013972000000000001,
    "MEAN_MOTION_DOT": 0.00055964,
    "MEAN_MOTION_DDOT": 0.0,
    "TLE_LINE1": "1 65751U 25216T   25315.00374059  .00055964  00000+0  13972-2 0  9996",
    "TLE_LINE2": "2 65751  53.1591 164.7819 0000795  63.4909 296.6177 15.39655429  8362",
    "COMMENT": "Grouped by shell and plane from TLE"
  },
  {
    "OBJECT_NAME": "STARLINK-34893",
    "OBJECT_ID": "25216U",
    "EPOCH": "2025-11-11T06:52:43.738176",
    "MEAN_MOTION": 15.39659925,
    "ECCENTRICITY": 9.64e-05,
    "INCLINATION": 53.1656,
    "RA_OF_ASC_NODE": 163.7086,
    "ARG_OF_PERICENTER": 101.2049,
    "MEAN_ANOMALY": 258.9065,
    "EPHEMERIS_TYPE": 0,
    "CLASSIFICATION_TYPE": "U",
    "NORAD_CAT_ID": 65752,
    "ELEMENT_SET_NO": 999,
    "REV_AT_EPOCH": 837,
    "BSTAR": 0.0012194,
    "MEAN_MOTION_DOT": 0.00048752,
    "MEAN_MOTION_DDOT": 0.0,
    "TLE_LINE1": "1 65752U 25216U   25315.28661734  .00048752  00000+0  12194-2 0  9998",
    "TLE_LINE2": "2 65752  53.1656 163.7086 0000964 101.2049 258.9065 15.39659925  8377",
    "COMMENT": "Grouped by shell and plane from TLE"
  },
  {
    "OBJECT_NAME": "STARLINK-34894",
    "OBJECT_ID": "25216V",
    "EPOCH": "2025-11-11T00:18:45.889632",
    "MEAN_MOTION": 15.39645247,
    "ECCENTRICITY": 0.0001559,
    "INCLINATION": 53.1566,
    "RA_OF_ASC_NODE": 164.8409,
    "ARG_OF_PERICENTER": 94.9672,
    "MEAN_ANOMALY": 265.1511,
    "EPHEMERIS_TYPE": 0,
    "CLASSIFICATION_TYPE": "U",
    "NORAD_CAT_ID": 65753,
    "ELEMENT_SET_NO": 999,
    "REV_AT_EPOCH": 833,
    "BSTAR": 0.0016084,
    "MEAN_MOTION_DOT": 0.00064538,
    "MEAN_MOTION_DDOT": 0.0,
    "TLE_LINE1": "1 65753U 25216V   25315.01303113  .00064538  00000+0  16084-2 0  9996",
    "TLE_LINE2": "2 65753  53.1566 164.8409 0001559  94.9672 265.1511 15.39645247  8334",
    "COMMENT": "Grouped by shell and plane from TLE"
  },
  {
    "OBJECT_NAME": "STARLINK-35287",
    "OBJECT_ID": "25216W",
    "EPOCH": "2025-11-10T23:52:00.598368",
    "MEAN_MOTION": 15.39650598,
    "ECCENTRICITY": 7.38e-05,
    "INCLINATION": 53.1588,
    "RA_OF_ASC_NODE": 164.7218,
    "ARG_OF_PERICENTER": 109.2154,
    "MEAN_ANOMALY": 250.8931,
    "EPHEMERIS_TYPE": 0,
    "CLASSIFICATION_TYPE": "U",
    "NORAD_CAT_ID": 65754,
    "ELEMENT_SET_NO": 999,
    "REV_AT_EPOCH": 832,
    "BSTAR": 0.0010674,
    "MEAN_MOTION_DOT": 0.00042578,
    "MEAN_MOTION_DDOT": 0.0,
    "TLE_LINE1": "1 65754U 25216W   25314.99445137  .00042578  00000+0  10674-2 0  9995",
    "TLE_LINE2": "2 65754  53.1588 164.7218 0000738 109.2154 250.8931 15.39650598  8320",
    "COMMENT": "Grouped by shell and plane from TLE"
  },
  {
    "OBJECT_NAME": "STARLINK-35294",
    "OBJECT_ID": "25216X",
    "EPOCH": "2025-11-10T23:58:41.605824",
    "MEAN_MOTION": 15.39689092,
    "ECCENTRICITY": 1e-05,
    "INCLINATION": 53.1629,
    "RA_OF_ASC_NODE": 164.7525,
    "ARG_OF_PERICENTER": 184.1552,
    "MEAN_ANOMALY": 175.9452,
    "EPHEMERIS_TYPE": 0,
    "CLASSIFICATION_TYPE": "U",
    "NORAD_CAT_ID": 65755,
    "ELEMENT_SET_NO": 999,
    "REV_AT_EPOCH": 836,
    "BSTAR": 0.0017471000000000001,
    "MEAN_MOTION_DOT": 0.00070288,
    "MEAN_MOTION_DDOT": 0.0,
    "TLE_LINE1": "1 65755U 25216X   25314.99909266  .00070288  00000+0  17471-2 0  9995",
    "TLE_LINE2": "2 65755  53.1629 164.7525 0000100 184.1552 175.9452 15.39689092  8365",
    "COMMENT": "Grouped by shell and plane from TLE"
  },
  {
    "OBJECT_NAME": "STARLINK-35275",
    "OBJECT_ID": "25216Y",
    "EPOCH": "2025-11-10T20:25:00.134400",
    "MEAN_MOTION": 15.39633864,
    "ECCENTRICITY": 4.13e-05,
    "INCLINATION": 53.1646,
    "RA_OF_ASC_NODE": 165.2455,
    "ARG_OF_PERICENTER": 6.5377,
    "MEAN_ANOMALY": 353.5633,
    "EPHEMERIS_TYPE": 0,
    "CLASSIFICATION_TYPE": "U",
    "NORAD_CAT_ID": 65756,
    "ELEMENT_SET_NO": 999,
    "REV_AT_EPOCH": 834,
    "BSTAR": 0.0013552,
    "MEAN_MOTION_DOT": 0.00054217,
    "MEAN_MOTION_DDOT": 0.0,
    "TLE_LINE1": "1 65756U 25216Y   25314.85069600  .00054217  00000+0  13552-2 0  9990",
    "TLE_LINE2": "2 65756  53.1646 165.2455 0000413   6.5377 353.5633 15.39633864  8341",
    "COMMENT": "Grouped by shell and plane from TLE"
  },
  {
    "OBJECT_NAME": "STARLINK-35211",
    "OBJECT_ID": "25216Z",
    "EPOCH": "2025-11-10T21:51:47.598912",
    "MEAN_MOTION": 15.39636656,
    "ECCENTRICITY": 0.0001165,
    "INCLINATION": 53.16,
    "RA_OF_ASC_NODE": 164.9081,
    "ARG_OF_PERICENTER": 92.031,
    "MEAN_ANOMALY": 268.0828,
    "EPHEMERIS_TYPE": 0,
    "CLASSIFICATION_TYPE": "U",
    "NORAD_CAT_ID": 65757,
    "ELEMENT_SET_NO": 999,
    "REV_AT_EPOCH": 835,
    "BSTAR": 0.0013244,
    "MEAN_MOTION_DOT": 0.00052973,
    "MEAN_MOTION_DDOT": 0.0,
    "TLE_LINE1": "1 65757U 25216Z   25314.91096758  .00052973  00000+0  13244-2 0  9997",
    "TLE_LINE2": "2 65757  53.1600 164.9081 0001165  92.0310 268.0828 15.39636656  8354",
    "COMMENT": "Grouped by shell and plane from TLE"
  },
  {
    "OBJECT_NAME": "STARLINK-35313",
    "OBJECT_ID": "25216AA",
    "EPOCH": "2025-11-10T23:18:34.686720",
    "MEAN_MOTION": 15.39658397,
    "ECCENTRICITY": 1.24e-05,
    "INCLINATION": 53.1596,
    "RA_OF_ASC_NODE": 164.5728,
    "ARG_OF_PERICENTER": 179.5604,
    "MEAN_ANOMALY": 180.5401,
    "EPHEMERIS_TYPE": 0,
    "CLASSIFICATION_TYPE": "U",
    "NORAD_CAT_ID": 65758,
    "ELEMENT_SET_NO": 999,
    "REV_AT_EPOCH": 832,
    "BSTAR": 0.0015237999999999999,
    "MEAN_MOTION_DOT": 0.00061117,
    "MEAN_MOTION_DDOT": 0.0,
    "TLE_LINE1": "1 65758U 25216AA  25314.97123480  .00061117  00000+0  15238-2 0  9992",
    "TLE_LINE2": "2 65758  53.1596 164.5728 0000124 179.5604 180.5401 15.39658397  8322",
    "COMMENT": "Grouped by shell and plane from TLE"
  },
  {
    "OBJECT_NAME": "STARLINK-34692",
    "OBJECT_ID": "25216AB",
    "EPOCH": "2025-11-11T08:00:03.000384",
    "MEAN_MOTION": 15.30856715,
    "ECCENTRICITY": 0.000152,
    "INCLINATION": 53.1595,
    "RA_OF_ASC_NODE": 162.8699,
    "ARG_OF_PERICENTER": 79.2041,
    "MEAN_ANOMALY": 127.3656,
    "EPHEMERIS_TYPE": 0,
    "CLASSIFICATION_TYPE": "U",
    "NORAD_CAT_ID": 65759,
    "ELEMENT_SET_NO": 999,
    "REV_AT_EPOCH": 599,
    "BSTAR": 0.0,
    "MEAN_MOTION_DOT": -0.01059229,
    "MEAN_MOTION_DDOT": 0.0,
    "TLE_LINE1": "1 65759U 25216AB  25315.33336806 -.01059229  00000+0 -38182-1 0  9998",
    "TLE_LINE2": "2 65759  53.1595 162.8699 0001520  79.2041 127.3656 15.30856715  5998",
    "COMMENT": "Grouped by shell and plane from TLE"
  },
  {
    "OBJECT_NAME": "STARLINK-34890",
    "OBJECT_ID": "25216AC",
    "EPOCH": "2025-11-10T23:45:19.532160",
    "MEAN_MOTION": 15.39703368,
    "ECCENTRICITY": 4.66e-05,
    "INCLINATION": 53.1609,
    "RA_OF_ASC_NODE": 164.6925,
    "ARG_OF_PERICENTER": 72.9849,
    "MEAN_ANOMALY": 287.1207,
    "EPHEMERIS_TYPE": 0,
    "CLASSIFICATION_TYPE": "U",
    "NORAD_CAT_ID": 65760,
    "ELEMENT_SET_NO": 999,
    "REV_AT_EPOCH": 835,
    "BSTAR": 0.0012841,
    "MEAN_MOTION_DOT": 0.00051453,
    "MEAN_MOTION_DDOT": 0.0,
    "TLE_LINE1": "1 65760U 25216AC  25314.98980940  .00051453  00000+0  12841-2 0  9997",
    "TLE_LINE2": "2 65760  53.1609 164.6925 0000466  72.9849 287.1207 15.39703368  8356",
    "COMMENT": "Grouped by shell and plane from TLE"
  },
  {
    "OBJECT_NAME": "STARLINK-34889",
    "OBJECT_ID": "25216AD",
    "EPOCH": "2025-11-10T23:38:38.256864",
    "MEAN_MOTION": 15.3965718,
    "ECCENTRICITY": 7.06e-05,
    "INCLINATION": 53.1614,
    "RA_OF_ASC_NODE": 164.6603,
    "ARG_OF_PERICENTER": 101.2678,
    "MEAN_ANOMALY": 258.8406,
    "EPHEMERIS_TYPE": 0,
    "CLASSIFICATION_TYPE": "U",
    "NORAD_CAT_ID": 65761,
    "ELEMENT_SET_NO": 999,
    "REV_AT_EPOCH": 841,
    "BSTAR": 0.0014686,
    "MEAN_MOTION_DOT": 0.0005887,
    "MEAN_MOTION_DDOT": 0.0,
    "TLE_LINE1": "1 65761U 25216AD  25314.98516501  .00058870  00000+0  14686-2 0  9995",
    "TLE_LINE2": "2 65761  53.1614 164.6603 0000706 101.2678 258.8406 15.39657180  8412",
    "COMMENT": "Grouped by shell and plane from TLE"
  }
]